NORAD_CAT_ID,OBJECT_NAME,OBJECT_TYPE,EPOCH,MEAN_MOTION,ECCENTRICITY,INCLINATION,RA_OF_ASC_NODE,ARG_OF_PERICENTER,MEAN_ANOMALY,BSTAR,MEAN_MOTION_DOT,MEAN_MOTION_DDOT,TLE_LINE0,TLE_LINE1,TLE_LINE2,SEMIMAJOR_AXIS,PERIOD,APOGEE,PERIGEE,DECAYED
53838.0,STARLINK-4773,PAYLOAD,2024-04-22 08:08:30,15.08836826,0.0001748,53.2174,135.4327,111.3519,248.766,5.9534e-05,6.59e-06,0.0,0 STARLINK-4773,1 53838U 22114W   24113.33923990  .00000659  00000-0  59534-4 0  9996,2 53838  53.2174 135.4327 0001748 111.3519 248.7660 15.08836826 88812,6917.89,95.438,540.964,538.546,0.0
53838.0,STARLINK-4773,PAYLOAD,2024-04-22 11:19:16,15.08837404,0.0001836,53.2172,134.8371,108.7302,251.389,7.6486e-05,9.29e-06,0.0,0 STARLINK-4773,1 53838U 22114W   24113.47171962  .00000929  00000-0  76486-4 0  9990,2 53838  53.2172 134.8371 0001836 108.7302 251.3890 15.08837404 89370,6917.888,95.438,541.023,538.483,0.0
53838.0,STARLINK-4773,PAYLOAD,2024-04-23 04:48:30,15.08843446,0.0001501,53.2171,131.565,105.7176,254.3981,0.00021088,3.07e-05,0.0,0 STARLINK-4773,1 53838U 22114W   24114.20035263  .00003070  00000-0  21088-3 0  9992,2 53838  53.2171 131.5650 0001501 105.7176 254.3981 15.08843446 88947,6917.87,95.437,540.773,538.696,0.0
53838.0,STARLINK-4773,PAYLOAD,2024-04-23 07:59:16,15.08844407,0.0001607,53.217,130.9705,105.2057,254.9113,0.00023198,3.406e-05,0.0,0 STARLINK-4773,1 53838U 22114W   24114.33283214  .00003406  00000-0  23198-3 0  9994,2 53838  53.2170 130.9705 0001607 105.2057 254.9113 15.08844407 89504,6917.867,95.437,540.844,538.62,0.0
53838.0,STARLINK-4773,PAYLOAD,2024-04-24 01:28:31,15.08848167,0.0001592,53.2173,127.6995,94.3772,265.7402,0.00011883,1.604e-05,0.0,0 STARLINK-4773,1 53838U 22114W   24115.06147536  .00001604  00000-0  11883-3 0  9997,2 53838  53.2173 127.6995 0001592  94.3772 265.7402 15.08848167 89076,6917.855,95.437,540.822,538.619,0.0
53838.0,STARLINK-4773,PAYLOAD,2024-04-24 06:14:40,15.08846837,0.00016,53.2171,126.8071,102.9029,257.2142,0.00010124,1.324e-05,0.0,0 STARLINK-4773,1 53838U 22114W   24115.26019555  .00001324  00000-0  10124-3 0  9994,2 53838  53.2171 126.8071 0001600 102.9029 257.2142 15.08846837 89643,6917.859,95.437,540.831,538.618,0.0
53838.0,STARLINK-4773,PAYLOAD,2024-04-25 04:30:04,15.08844947,0.0001648,53.2169,122.6458,111.8797,248.2371,-3.4892e-06,-3.44e-06,0.0,0 STARLINK-4773,1 53838U 22114W   24116.18755405 -.00000344  00000-0 -34892-5 0  9990,2 53838  53.2169 122.6458 0001648 111.8797 248.2371 15.08844947 89246,6917.865,95.437,540.87,538.59,0.0
53838.0,STARLINK-4773,PAYLOAD,2024-04-25 07:40:51,15.0884264,0.0001428,53.2168,122.0519,101.2052,258.91,-4.7203e-05,-1.039e-05,0.0,0 STARLINK-4773,1 53838U 22114W   24116.32003628 -.00001039  00000-0 -47203-4 0  9990,2 53838  53.2168 122.0519 0001428 101.2052 258.9100 15.08842640 89808,6917.872,95.437,540.725,538.749,0.0
53838.0,STARLINK-4773,PAYLOAD,2024-04-26 09:07:00,15.08842784,0.0001273,53.2164,117.2945,86.2003,273.9134,3.6322e-05,2.9e-06,0.0,0 STARLINK-4773,1 53838U 22114W   24117.37987202  .00000290  00000-0  36322-4 0  9991,2 53838  53.2164 117.2945 0001273  86.2003 273.9134 15.08842784 89420,6917.872,95.437,540.618,538.856,0.0
53838.0,STARLINK-4773,PAYLOAD,2024-04-26 17:03:55,15.08849766,0.0001356,53.217,115.8078,81.8685,278.2461,0.00010071,1.316e-05,0.0,0 STARLINK-4773,1 53838U 22114W   24117.71106467  .00001316  00000-0  10071-3 0  9997,2 53838  53.2170 115.8078 0001356  81.8685 278.2461 15.08849766 90012,6917.851,95.437,540.654,538.777,0.0
53838.0,STARLINK-4773,PAYLOAD,2024-04-27 05:47:01,15.08841344,0.0001225,53.2166,113.4282,96.6647,263.4485,8.3123e-05,1.035e-05,0.0,0 STARLINK-4773,1 53838U 22114W   24118.24098974  .00001035  00000-0  83123-4 0  9996,2 53838  53.2166 113.4282 0001225  96.6647 263.4485 15.08841344 89558,6917.876,95.437,540.589,538.894,0.0
53838.0,STARLINK-4773,PAYLOAD,2024-04-27 08:57:47,15.08843896,0.0001395,53.2163,112.8344,85.5422,274.573,0.00011085,1.477e-05,0.0,0 STARLINK-4773,1 53838U 22114W   24118.37346809  .00001477  00000-0  11085-3 0  9990,2 53838  53.2163 112.8344 0001395  85.5422 274.5730 15.08843896 90117,6917.868,95.437,540.699,538.768,0.0
53838.0,STARLINK-4773,PAYLOAD,2024-04-27 16:54:43,15.08845258,0.0001447,53.2167,111.3483,83.044,277.0717,9.8647e-05,1.283e-05,0.0,0 STARLINK-4773,1 53838U 22114W   24118.70466638  .00001283  00000-0  98647-4 0  9995,2 53838  53.2167 111.3483 0001447  83.0440 277.0717 15.08845258 90162,6917.864,95.437,540.73,538.728,0.0
53838.0,STARLINK-4773,PAYLOAD,2024-04-28 05:37:49,15.08829757,0.0001264,53.2173,108.9678,93.6869,266.4268,-8.5674e-05,-1.651e-05,0.0,0 STARLINK-4773,1 53838U 22114W   24119.23460321 -.00001651  00000-0 -85674-4 0  9994,2 53838  53.2173 108.9678 0001264  93.6869 266.4268 15.08829757 89703,6917.912,95.438,540.651,538.902,0.0
53838.0,STARLINK-4773,PAYLOAD,2024-04-28 08:48:35,15.0883371,0.0001591,53.2186,108.3749,102.7403,257.3767,-2.4806e-05,-6.83e-06,0.0,0 STARLINK-4773,1 53838U 22114W   24119.36708012 -.00000683  00000-0 -24806-4 0  9994,2 53838  53.2186 108.3749 0001591 102.7403 257.3767 15.08833710 90269,6917.9,95.438,540.865,538.664,0.0
53838.0,STARLINK-4773,PAYLOAD,2024-04-28 16:45:31,15.08839809,0.000146,53.2169,106.8868,93.0439,267.072,-2.8802e-05,-7.46e-06,0.0,0 STARLINK-4773,1 53838U 22114W   24119.69827590 -.00000746  00000-0 -28802-4 0  9993,2 53838  53.2169 106.8868 0001460  93.0439 267.0720 15.08839809 89777,6917.881,95.438,540.756,538.736,0.0
53838.0,STARLINK-4773,PAYLOAD,2024-04-29 08:39:21,15.0884604,0.0001456,53.2168,103.9123,96.6955,263.4203,5.4163e-05,5.74e-06,0.0,0 STARLINK-4773,1 53838U 22114W   24120.36066951  .00000574  00000-0  54163-4 0  9991,2 53838  53.2168 103.9123 0001456  96.6955 263.4203 15.08846040 89877,6917.862,95.437,540.734,538.72,0.0
53838.0,STARLINK-4773,PAYLOAD,2024-04-30 05:19:22,15.08837813,0.0001375,53.2169,100.0467,99.2582,260.8566,0.00010342,1.358e-05,0.0,0 STARLINK-4773,1 53838U 22114W   24121.22179371  .00001358  00000-0  10342-3 0  9999,2 53838  53.2169 100.0467 0001375  99.2582 260.8566 15.08837813 90000,6917.887,95.438,540.703,538.801,0.0
53838.0,STARLINK-4773,PAYLOAD,2024-04-30 22:48:37,15.08838375,0.0001461,53.2175,96.7747,102.7295,257.3861,2.6051e-05,1.27e-06,0.0,0 STARLINK-4773,1 53838U 22114W   24121.95043660  .00000127  00000-0  26051-4 0  9998,2 53838  53.2175  96.7747 0001461 102.7295 257.3861 15.08838375 90650,6917.885,95.438,540.761,538.74,0.0
53838.0,STARLINK-4773,PAYLOAD,2024-05-01 05:10:10,15.08836469,0.0001333,53.2168,95.5878,93.3075,266.8069,1.7463e-05,-1e-07,0.0,0 STARLINK-4773,1 53838U 22114W   24122.21539881 -.00000010  00000-0  17463-4 0  9992,2 53838  53.2168  95.5878 0001333  93.3075 266.8069 15.08836469 90155,6917.891,95.438,540.678,538.834,0.0
53838.0,STARLINK-4773,PAYLOAD,2024-05-01 22:39:24,15.0883605,0.0001315,53.2173,92.3153,84.1081,276.0061,3.2052e-05,2.22e-06,0.0,0 STARLINK-4773,1 53838U 22114W   24122.94403862  .00000222  00000-0  32052-4 0  9996,2 53838  53.2173  92.3153 0001315  84.1081 276.0061 15.08836050 90800,6917.892,95.438,540.667,538.848,0.0
53838.0,STARLINK-4773,PAYLOAD,2024-05-02 06:36:20,15.0883495,0.0001289,53.2172,90.829,86.8441,273.2698,1.6458e-05,-2.6e-07,0.0,0 STARLINK-4773,1 53838U 22114W   24123.27524061 -.00000026  00000-0  16458-4 0  9993,2 53838  53.2172  90.8290 0001289  86.8441 273.2698 15.08834950 90311,6917.896,95.438,540.653,538.869,0.0
53838.0,STARLINK-4773,PAYLOAD,2024-05-03 04:51:44,15.08843866,0.0001274,53.2169,86.6655,84.9717,275.1421,0.00013342,1.836e-05,0.0,0 STARLINK-4773,1 53838U 22114W   24124.20259281  .00001836  00000-0  13342-3 0  9993,2 53838  53.2169  86.6655 0001274  84.9717 275.1421 15.08843866 90450,6917.869,95.437,540.615,538.852,0.0
53838.0,STARLINK-4773,PAYLOAD,2024-05-03 14:24:02,15.0885207,0.0001297,53.217,84.881,74.7529,285.3606,0.00021306,3.106e-05,0.0,0 STARLINK-4773,1 53838U 22114W   24124.60002402  .00003106  00000-0  21306-3 0  9999,2 53838  53.2170  84.8810 0001297  74.7529 285.3606 15.08852070 91050,6917.843,95.437,540.606,538.811,0.0
53838.0,STARLINK-4773,PAYLOAD,2024-05-04 03:07:09,15.08822305,0.0001345,53.2171,82.5039,90.1925,269.9221,-4.8716e-05,-1.063e-05,0.0,0 STARLINK-4773,1 53838U 22114W   24125.12997303 -.00001063  00000-0 -48716-4 0  9997,2 53838  53.2171  82.5039 0001345  90.1925 269.9221 15.08822305 90592,6917.934,95.439,540.73,538.869,0.0
53838.0,STARLINK-4773,PAYLOAD,2024-05-04 14:14:51,15.08833987,0.0001425,53.2176,80.4232,90.0938,270.0217,3.1427e-05,2.12e-06,0.0,0 STARLINK-4773,1 53838U 22114W   24125.59364794  .00000212  00000-0  31427-4 0  9994,2 53838  53.2176  80.4232 0001425  90.0938 270.0217 15.08833987 90665,6917.899,95.438,540.75,538.778,0.0
53838.0,STARLINK-4773,PAYLOAD,2024-05-05 04:33:18,15.0885066,0.0001351,53.2176,77.7467,90.0235,270.0912,8.2285e-05,1.022e-05,0.0,0 STARLINK-4773,1 53838U 22114W   24126.18979777  .00001022  00000-0  82285-4 0  9991,2 53838  53.2176  77.7467 0001351  90.0235 270.0912 15.08850660 90751,6917.848,95.437,540.647,538.778,0.0
53838.0,STARLINK-4773,PAYLOAD,2024-05-05 20:27:10,15.08842386,0.0001462,53.217,74.7728,80.3216,279.7941,0.00039723,6.04e-05,0.0,0 STARLINK-4773,1 53838U 22114W   24126.85220305  .00006040  00000-0  39723-3 0  9994,2 53838  53.2170  74.7728 0001462  80.3216 279.7941 15.08842386 90851,6917.873,95.437,540.749,538.727,0.0
53838.0,STARLINK-4773,PAYLOAD,2024-05-06 05:59:28,15.08850386,0.0001301,53.2168,72.9862,94.0466,266.0675,0.00038172,5.794e-05,0.0,0 STARLINK-4773,1 53838U 22114W   24127.24963924  .00005794  00000-0  38172-3 0  9991,2 53838  53.2168  72.9862 0001301  94.0466 266.0675 15.08850386 91457,6917.849,95.437,540.614,538.814,0.0
53838.0,STARLINK-4773,PAYLOAD,2024-05-07 02:39:29,15.08848392,0.000121,53.217,69.1209,85.8293,274.2838,0.00015466,2.175e-05,0.0,0 STARLINK-4773,1 53838U 22114W   24128.11075643  .00002175  00000-0  15466-3 0  9991,2 53838  53.2170  69.1209 0001210  85.8293 274.2838 15.08848392 91049,6917.855,95.437,540.557,538.883,0.0
